0 COSMOS 2251 DEB
1 33892U 93036CV  13280.26085782  .00001172  00000-0  58763-3 0  7988
2 33892 073.8094 216.1798 0130130 313.1527 200.0044 14.13507713239378
0 COSMOS 2251 DEB
1 33892U 93036CV  13282.85995167  .00001175  00000-0  58919-3 0  7999
2 33892 073.8098 211.5154 0130087 308.1070 105.7699 14.13517031239747
0 COSMOS 2251 DEB
1 33892U 93036CV  13287.18499573  .00001209  00000-0  60574-3 0  8012
2 33892 073.8106 203.7542 0130096 299.6928 154.4136 14.13528925240357
0 COSMOS 2251 DEB
1 33892U 93036CV  13289.45457413  .00001093  00000-0  54887-3 0  8023
2 33892 073.8105 199.6817 0130123 295.2774 183.5866 14.13538061240676
0 COSMOS 2251 DEB
1 33892U 93036CV  13291.84998600  .00001013  00000-0  50952-3 0  8039
2 33892 073.8103 195.3835 0130168 290.6048 133.1697 14.13544367241017
0 COSMOS 2251 DEB
1 33892U 93036CV  13294.12530994  .00000910  00000-0  45887-3 0  8048
2 33892 073.8101 191.3009 0130186 286.1753 191.7005 14.13550459241334
